NORAD_CAT_ID,OBJECT_NAME,OBJECT_TYPE,EPOCH,MEAN_MOTION,ECCENTRICITY,INCLINATION,RA_OF_ASC_NODE,ARG_OF_PERICENTER,MEAN_ANOMALY,BSTAR,MEAN_MOTION_DOT,MEAN_MOTION_DDOT,TLE_LINE0,TLE_LINE1,TLE_LINE2,SEMIMAJOR_AXIS,PERIOD,APOGEE,PERIGEE,DECAYED
52354.0,STARLINK-3876,PAYLOAD,2023-04-27 02:05:58,15.08852864,9.98e-05,53.2146,221.9851,119.4182,240.691,0.0013345,0.00021022,0.0,0 STARLINK-3876,1 52354U 22045Z   23117.08748504  .00021022  00000-0  13345-2 0  9997,2 52354  53.2146 221.9851 0000998 119.4182 240.6910 15.08852864 57632,6917.841,95.437,540.396,539.016,0.0
52354.0,STARLINK-3876,PAYLOAD,2023-04-27 11:38:17,15.08870619,9.64e-05,53.2147,220.2009,117.3081,242.8009,0.0013877,0.00021885,0.0,0 STARLINK-3876,1 52354U 22045Z   23117.48491904  .00021885  00000-0  13877-2 0  9997,2 52354  53.2147 220.2009 0000964 117.3081 242.8009 15.08870619 57695,6917.787,95.436,540.319,538.985,0.0
52354.0,STARLINK-3876,PAYLOAD,2023-04-28 06:42:53,15.08853638,9.35e-05,53.2149,216.6327,95.0931,265.0167,0.00055183,8.509e-05,0.0,0 STARLINK-3876,1 52354U 22045Z   23118.27979125  .00008509  00000-0  55183-3 0  9996,2 52354  53.2149 216.6327 0000935  95.0931 265.0167 15.08853638 57811,6917.839,95.437,540.351,539.057,0.0
52354.0,STARLINK-3876,PAYLOAD,2023-04-28 13:04:26,15.08863057,8e-05,53.2152,215.443,97.0954,263.0129,0.00055468,8.556e-05,0.0,0 STARLINK-3876,1 52354U 22045Z   23118.54474696  .00008556  00000-0  55468-3 0  9997,2 52354  53.2152 215.4430 0000800  97.0954 263.0129 15.08863057 57851,6917.81,95.436,540.228,539.121,0.0
52354.0,STARLINK-3876,PAYLOAD,2023-04-29 01:47:31,15.08853837,3.92e-05,53.2158,213.0625,84.8781,275.2256,0.00066795,0.00010363,0.0,0 STARLINK-3876,1 52354U 22045Z   23119.07466786  .00010363  00000-0  66795-3 0  9991,2 52354  53.2158 213.0625 0000392  84.8781 275.2256 15.08853837 57935,6917.838,95.437,539.974,539.432,0.0
52354.0,STARLINK-3876,PAYLOAD,2023-04-29 11:19:50,15.08838165,0.0001001,53.2158,211.2808,80.4046,279.7059,0.0012475,0.00019621,0.0,0 STARLINK-3876,1 52354U 22045Z   23119.47211206  .00019621  00000-0  12475-2 0  9991,2 52354  53.2158 211.2808 0001001  80.4046 279.7059 15.08838165 57995,6917.886,95.438,540.443,539.059,0.0
52354.0,STARLINK-3876,PAYLOAD,2023-04-29 16:05:59,15.08846186,0.0001093,53.2161,210.3901,64.1938,295.9167,0.0012874,0.00020264,0.0,0 STARLINK-3876,1 52354U 22045Z   23119.67083136  .00020264  00000-0  12874-2 0  9990,2 52354  53.2161 210.3901 0001093  64.1938 295.9167 15.08846186 58020,6917.861,95.437,540.483,538.97,0.0
52354.0,STARLINK-3876,PAYLOAD,2023-04-30 11:10:37,15.08843471,0.0001173,53.2154,206.8179,109.8941,250.2177,0.0005392,8.305e-05,0.0,0 STARLINK-3876,1 52354U 22045Z   23120.46571373  .00008305  00000-0  53920-3 0  9994,2 52354  53.2154 206.8179 0001173 109.8941 250.2177 15.08843471 58141,6917.87,95.437,540.546,538.923,0.0
52354.0,STARLINK-3876,PAYLOAD,2023-05-01 06:15:15,15.08840997,0.0001166,53.2154,203.2503,97.0698,263.0426,0.0003603,5.451e-05,0.0,0 STARLINK-3876,1 52354U 22045Z   23121.26059713  .00005451  00000-0  36030-3 0  9994,2 52354  53.2154 203.2503 0001166  97.0698 263.0426 15.08840997 58264,6917.877,95.437,540.549,538.936,0.0
52354.0,STARLINK-3876,PAYLOAD,2023-05-01 12:36:48,15.08835,0.0001097,53.216,202.0589,101.6214,258.4901,6.3097e-05,7.16e-06,0.0,0 STARLINK-3876,1 52354U 22045Z   23121.52555825  .00000716  00000-0  63097-4 0  9991,2 52354  53.2160 202.0589 0001097 101.6214 258.4901 15.08835000 58301,6917.896,95.438,540.52,539.002,0.0
52354.0,STARLINK-3876,PAYLOAD,2023-05-01 15:47:34,15.08838733,9.87e-05,53.2154,201.4674,87.1922,272.9183,0.00014736,2.058e-05,0.0,0 STARLINK-3876,1 52354U 22045Z   23121.65803831  .00002058  00000-0  14736-3 0  9994,2 52354  53.2154 201.4674 0000987  87.1922 272.9183 15.08838733 58324,6917.884,95.438,540.432,539.066,0.0
52354.0,STARLINK-3876,PAYLOAD,2023-05-02 04:30:39,15.08840164,0.0001004,53.2154,199.0887,83.0289,277.0817,0.00017907,2.563e-05,0.0,0 STARLINK-3876,1 52354U 22045Z   23122.18795922  .00002563  00000-0  17907-3 0  9998,2 52354  53.2154 199.0887 0001004  83.0289 277.0817 15.08840164 58404,6917.88,95.438,540.439,539.05,0.0
52354.0,STARLINK-3876,PAYLOAD,2023-05-02 12:27:35,15.0884685,0.0001009,53.2154,197.602,82.1417,277.969,0.00024447,3.606e-05,0.0,0 STARLINK-3876,1 52354U 22045Z   23122.51915609  .00003606  00000-0  24447-3 0  9997,2 52354  53.2154 197.6020 0001009  82.1417 277.9690 15.08846850 58456,6917.859,95.437,540.422,539.026,0.0
52354.0,STARLINK-3876,PAYLOAD,2023-05-02 17:13:44,15.08855247,0.0001018,53.2154,196.7093,86.5509,273.56,0.00038013,5.77e-05,0.0,0 STARLINK-3876,1 52354U 22045Z   23122.71787185  .00005770  00000-0  38013-3 0  9993,2 52354  53.2154 196.7093 0001018  86.5509 273.5600 15.08855247 58482,6917.834,95.437,540.403,538.995,0.0
52354.0,STARLINK-3876,PAYLOAD,2023-05-03 02:46:03,15.08833636,9.8e-05,53.2159,194.926,86.2909,273.8196,-2.1558e-05,-6.31e-06,0.0,0 STARLINK-3876,1 52354U 22045Z   23123.11532119 -.00000631  00000-0 -21558-4 0  9993,2 52354  53.2159 194.9260 0000980  86.2909 273.8196 15.08833636 58549,6917.9,95.438,540.443,539.087,0.0
52354.0,STARLINK-3876,PAYLOAD,2023-05-03 12:18:22,15.08841544,9.75e-05,53.2151,193.1413,88.5918,271.5186,0.00018482,2.655e-05,0.0,0 STARLINK-3876,1 52354U 22045Z   23123.51275876  .00002655  00000-0  18482-3 0  9998,2 52354  53.2151 193.1413 0000975  88.5918 271.5186 15.08841544 58609,6917.876,95.437,540.415,539.066,0.0
52354.0,STARLINK-3876,PAYLOAD,2023-05-04 10:33:46,15.0884022,0.0001003,53.2148,188.9777,89.154,270.9567,0.00037019,5.609e-05,0.0,0 STARLINK-3876,1 52354U 22045Z   23124.44012322  .00005609  00000-0  37019-3 0  9995,2 52354  53.2148 188.9777 0001003  89.1540 270.9567 15.08840220 58742,6917.88,95.438,540.439,539.051,0.0
52354.0,STARLINK-3876,PAYLOAD,2023-05-05 08:49:10,15.0884062,0.0001046,53.2146,184.815,85.0721,275.039,0.00026002,3.853e-05,0.0,0 STARLINK-3876,1 52354U 22045Z   23125.36748567  .00003853  00000-0  26002-3 0  9993,2 52354  53.2146 184.8150 0001046  85.0721 275.0390 15.08840620 58882,6917.878,95.438,540.467,539.02,0.0
52354.0,STARLINK-3876,PAYLOAD,2023-05-05 15:10:43,15.08846085,0.000106,53.2146,183.6257,83.4897,276.6216,0.00028786,4.297e-05,0.0,0 STARLINK-3876,1 52354U 22045Z   23125.63244398  .00004297  00000-0  28786-3 0  9990,2 52354  53.2146 183.6257 0001060  83.4897 276.6216 15.08846085 58929,6917.862,95.437,540.46,538.993,0.0
52354.0,STARLINK-3876,PAYLOAD,2023-05-06 13:26:07,15.08846048,0.0001495,53.2158,179.4568,123.6218,236.4917,0.00016885,2.401e-05,0.0,0 STARLINK-3876,1 52354U 22045Z   23126.55980574  .00002401  00000-0  16885-3 0  9997,2 52354  53.2158 179.4568 0001495 123.6218 236.4917 15.08846048 59063,6917.862,95.437,540.761,538.693,0.0
52354.0,STARLINK-3876,PAYLOAD,2023-05-07 03:44:34,15.08852625,0.0001126,53.2141,176.7828,114.2808,245.8301,0.00029663,4.438e-05,0.0,0 STARLINK-3876,1 52354U 22045Z   23127.15596040  .00004438  00000-0  29663-3 0  9995,2 52354  53.2141 176.7828 0001126 114.2808 245.8301 15.08852625 59155,6917.842,95.437,540.486,538.928,0.0
52354.0,STARLINK-3876,PAYLOAD,2023-05-07 08:30:44,15.08856995,0.0001122,53.214,175.8908,108.7068,251.4046,0.00037273,5.652e-05,0.0,0 STARLINK-3876,1 52354U 22045Z   23127.35467829  .00005652  00000-0  37273-3 0  9994,2 52354  53.2140 175.8908 0001122 108.7068 251.4046 15.08856995 59181,6917.828,95.436,540.47,538.917,0.0
52354.0,STARLINK-3876,PAYLOAD,2023-05-07 19:38:26,15.08849721,0.0001085,53.2133,173.8109,87.3627,272.7489,0.00021681,3.165e-05,0.0,0 STARLINK-3876,1 52354U 22045Z   23127.81835972  .00003165  00000-0  21681-3 0  9996,2 52354  53.2133 173.8109 0001085  87.3627 272.7489 15.08849721 59259,6917.851,95.437,540.466,538.965,0.0
52354.0,STARLINK-3876,PAYLOAD,2023-05-08 09:56:54,15.08839962,0.0001289,53.2164,171.1406,108.0596,252.0536,-0.0001301,-2.358e-05,0.0,0 STARLINK-3876,1 52354U 22045Z   23128.41452228 -.00002358  00000-0 -13010-3 0  9994,2 52354  53.2164 171.1406 0001289 108.0596 252.0536 15.08839962 59346,6917.881,95.438,540.637,538.854,0.0
52354.0,STARLINK-3876,PAYLOAD,2023-05-08 19:29:13,15.08836495,0.0001317,53.2162,169.3555,113.577,246.5361,-3.3223e-06,-3.41e-06,0.0,0 STARLINK-3876,1 52354U 22045Z   23128.81196569 -.00000341  00000-0 -33223-5 0  9991,2 52354  53.2162 169.3555 0001317 113.5770 246.5361 15.08836495 59404,6917.891,95.438,540.667,538.845,0.0
52354.0,STARLINK-3876,PAYLOAD,2023-05-09 11:23:05,15.08842599,0.0001353,53.2156,166.3803,108.4966,251.6173,6.5765e-05,7.59e-06,0.0,0 STARLINK-3876,1 52354U 22045Z   23129.47436346  .00000759  00000-0  65765-4 0  9990,2 52354  53.2156 166.3803 0001353 108.4966 251.6173 15.08842599 59501,6917.872,95.437,540.673,538.801,0.0
52354.0,STARLINK-3876,PAYLOAD,2023-05-10 09:38:29,15.08837481,0.0001165,53.2151,162.2149,88.9784,271.1341,0.00010642,1.406e-05,0.0,0 STARLINK-3876,1 52354U 22045Z   23130.40172957  .00001406  00000-0  10642-3 0  9993,2 52354  53.2151 162.2149 0001165  88.9784 271.1341 15.08837481 59648,6917.888,95.438,540.559,538.947,0.0
52354.0,STARLINK-3876,PAYLOAD,2023-05-10 19:10:48,15.08839625,0.0001189,53.2151,160.4305,87.3476,272.7652,0.00012016,1.625e-05,0.0,0 STARLINK-3876,1 52354U 22045Z   23130.79916937  .00001625  00000-0  12016-3 0  9999,2 52354  53.2151 160.4305 0001189  87.3476 272.7652 15.08839625 59700,6917.882,95.438,540.569,538.924,0.0
52354.0,STARLINK-3876,PAYLOAD,2023-05-11 09:29:16,15.08844169,0.0001203,53.2148,157.7546,85.319,274.7939,0.00012679,1.731e-05,0.0,0 STARLINK-3876,1 52354U 22045Z   23131.39532743  .00001731  00000-0  12679-3 0  9998,2 52354  53.2148 157.7546 0001203  85.3190 274.7939 15.08844169 59798,6917.868,95.437,540.565,538.9,0.0
52354.0,STARLINK-3876,PAYLOAD,2023-05-11 19:01:35,15.08836789,0.0001171,53.2151,155.969,86.1042,274.0084,0.00011675,1.571e-05,0.0,0 STARLINK-3876,1 52354U 22045Z   23131.79277163  .00001571  00000-0  11675-3 0  9991,2 52354  53.2151 155.9690 0001171  86.1042 274.0084 15.08836789 59851,6917.89,95.438,540.565,538.945,0.0
